{
  "type": "FeatureCollection",
  "features": [
    {
      "type": "Feature",
      "properties": {
        "norad_id": 40376,
        "name": "SMAP",
        "group": "resource",
        "lat": 7.573954757741066,
        "lon": 1.713025259869135,
        "alt_km": 684.206265336772,
        "timestamp": "2025-12-24T05:51:19.262837+00:00",
        "meta_object_name": "SMAP",
        "meta_object_id": "2015-003A",
        "meta_epoch": "2025-12-23T23:15:22.751712",
        "meta_mean_motion": 14.63358355,
        "meta_eccentricity": 0.00012296,
        "meta_inclination": 98.129,
        "meta_ra_of_asc_node": 2.531,
        "meta_arg_of_pericenter": 92.3318,
        "meta_mean_anomaly": 267.8025,
        "meta_ephemeris_type": 0,
        "meta_classification_type": "U",
        "meta_norad_cat_id": 40376,
        "meta_element_set_no": 999,
        "meta_rev_at_epoch": 58199,
        "meta_bstar": 0.00010844188,
        "meta_mean_motion_dot": 5.13e-06,
        "meta_mean_motion_ddot": 0,
        "tle_line1": "1 40376U 15003A   25357.96901333  .00000513  00000+0  10844-3 0  9993",
        "tle_line2": "2 40376  98.1290   2.5310 0001229  92.3318 267.8025 14.63358355581997"
      },
      "geometry": {
        "type": "Point",
        "coordinates": [
          1.713025259869135,
          7.573954757741066
        ]
      }
    },
    {
      "type": "Feature",
      "properties": {
        "norad_id": 40536,
        "name": "KOMPSAT-3A",
        "group": "resource",
        "lat": 19.216389022538912,
        "lon": 155.92552667179964,
        "alt_km": 431.6256337470386,
        "timestamp": "2025-12-24T05:51:19.262847+00:00",
        "meta_object_name": "KOMPSAT-3A",
        "meta_object_id": "2015-014A",
        "meta_epoch": "2025-12-23T22:56:34.454976",
        "meta_mean_motion": 15.44343356,
        "meta_eccentricity": 0.00055889,
        "meta_inclination": 97.6804,
        "meta_ra_of_asc_node": 332.9252,
        "meta_arg_of_pericenter": 102.336,
        "meta_mean_anomaly": 257.8513,
        "meta_ephemeris_type": 0,
        "meta_classification_type": "U",
        "meta_norad_cat_id": 40536,
        "meta_element_set_no": 999,
        "meta_rev_at_epoch": 59468,
        "meta_bstar": 0.00043490368,
        "meta_mean_motion_dot": 0.00019995,
        "meta_mean_motion_ddot": 0,
        "tle_line1": "1 40536U 15014A   25357.95595434  .00019995  00000+0  43490-3 0  9990",
        "tle_line2": "2 40536  97.6804 332.9252 0005588 102.3360 257.8513 15.44343356594682"
      },
      "geometry": {
        "type": "Point",
        "coordinates": [
          155.92552667179964,
          19.216389022538912
        ]
      }
    },
    {
      "type": "Feature",
      "properties": {
        "norad_id": 40697,
        "name": "SENTINEL-2A",
        "group": "resource",
        "lat": -29.061362631656202,
        "lon": 75.42425055874175,
        "alt_km": 795.2400433890125,
        "timestamp": "2025-12-24T05:51:19.262857+00:00",
        "meta_object_name": "SENTINEL-2A",
        "meta_object_id": "2015-028A",
        "meta_epoch": "2025-12-23T23:16:45.288768",
        "meta_mean_motion": 14.30809373,
        "meta_eccentricity": 0.00010675,
        "meta_inclination": 98.5733,
        "meta_ra_of_asc_node": 70.3452,
        "meta_arg_of_pericenter": 90.3283,
        "meta_mean_anomaly": 269.8022,
        "meta_ephemeris_type": 0,
        "meta_classification_type": "U",
        "meta_norad_cat_id": 40697,
        "meta_element_set_no": 999,
        "meta_rev_at_epoch": 54867,
        "meta_bstar": 5.2971087e-05,
        "meta_mean_motion_dot": 9.5e-07,
        "meta_mean_motion_ddot": 0,
        "tle_line1": "1 40697U 15028A   25357.96996862  .00000095  00000+0  52971-4 0  9990",
        "tle_line2": "2 40697  98.5733  70.3452 0001067  90.3283 269.8022 14.30809373548670"
      },
      "geometry": {
        "type": "Point",
        "coordinates": [
          75.42425055874175,
          -29.061362631656202
        ]
      }
    },
    {
      "type": "Feature",
      "properties": {
        "norad_id": 40701,
        "name": "GAOFEN-8",
        "group": "resource",
        "lat": 19.708959284356187,
        "lon": -0.27785134563406033,
        "alt_km": 445.730139348193,
        "timestamp": "2025-12-24T05:51:19.262867+00:00",
        "meta_object_name": "GAOFEN-8",
        "meta_object_id": "2015-030A",
        "meta_epoch": "2025-12-23T22:55:16.839264",
        "meta_mean_motion": 15.38929874,
        "meta_eccentricity": 0.00114472,
        "meta_inclination": 97.6903,
        "meta_ra_of_asc_node": 176.6445,
        "meta_arg_of_pericenter": 99.1593,
        "meta_mean_anomaly": 261.0947,
        "meta_ephemeris_type": 0,
        "meta_classification_type": "U",
        "meta_norad_cat_id": 40701,
        "meta_element_set_no": 999,
        "meta_rev_at_epoch": 58443,
        "meta_bstar": 0.0010328644,
        "meta_mean_motion_dot": 0.0003995,
        "meta_mean_motion_ddot": 0,
        "tle_line1": "1 40701U 15030A   25357.95505601  .00039950  00000+0  10329-2 0  9996",
        "tle_line2": "2 40701  97.6903 176.6445 0011447  99.1593 261.0947 15.38929874584433"
      },
      "geometry": {
        "type": "Point",
        "coordinates": [
          -0.27785134563406033,
          19.708959284356187
        ]
      }
    },
    {
      "type": "Feature",
      "properties": {
        "norad_id": 40718,
        "name": "CARBONITE 1 (CBNT-1)",
        "group": "resource",
        "lat": -62.09175953842375,
        "lon": -166.53867052244698,
        "alt_km": 637.1713895980529,
        "timestamp": "2025-12-24T05:51:19.262877+00:00",
        "meta_object_name": "CARBONITE 1 (CBNT-1)",
        "meta_object_id": "2015-032D",
        "meta_epoch": "2025-12-23T23:39:43.127712",
        "meta_mean_motion": 14.82795883,
        "meta_eccentricity": 0.00152595,
        "meta_inclination": 97.6397,
        "meta_ra_of_asc_node": 178.5349,
        "meta_arg_of_pericenter": 145.3172,
        "meta_mean_anomaly": 214.904,
        "meta_ephemeris_type": 0,
        "meta_classification_type": "U",
        "meta_norad_cat_id": 40718,
        "meta_element_set_no": 999,
        "meta_rev_at_epoch": 56337,
        "meta_bstar": 0.00054257947,
        "meta_mean_motion_dot": 4.347e-05,
        "meta_mean_motion_ddot": 0,
        "tle_line1": "1 40718U 15032D   25357.98591583  .00004347  00000+0  54258-3 0  9995",
        "tle_line2": "2 40718  97.6397 178.5349 0015259 145.3172 214.9040 14.82795883563374"
      },
      "geometry": {
        "type": "Point",
        "coordinates": [
          -166.53867052244698,
          -62.09175953842375
        ]
      }
    },
    {
      "type": "Feature",
      "properties": {
        "norad_id": 40878,
        "name": "YAOGAN-27",
        "group": "resource",
        "lat": -56.56828640516954,
        "lon": 3.0081546587417276,
        "alt_km": 1202.6277632835554,
        "timestamp": "2025-12-24T05:51:19.262886+00:00",
        "meta_object_name": "YAOGAN-27",
        "meta_object_id": "2015-040A",
        "meta_epoch": "2025-12-23T22:51:04.250592",
        "meta_mean_motion": 13.16061747,
        "meta_eccentricity": 0.00075617,
        "meta_inclination": 100.1013,
        "meta_ra_of_asc_node": 347.0647,
        "meta_arg_of_pericenter": 258.7308,
        "meta_mean_anomaly": 101.2956,
        "meta_ephemeris_type": 0,
        "meta_classification_type": "U",
        "meta_norad_cat_id": 40878,
        "meta_element_set_no": 999,
        "meta_rev_at_epoch": 49461,
        "meta_bstar": 0.00085730842,
        "meta_mean_motion_dot": 2.83e-06,
        "meta_mean_motion_ddot": 0,
        "tle_line1": "1 40878U 15040A   25357.95213253  .00000283  00000+0  85731-3 0  9998",
        "tle_line2": "2 40878 100.1013 347.0647 0007561 258.7308 101.2956 13.16061747494612"
      },
      "geometry": {
        "type": "Point",
        "coordinates": [
          3.0081546587417276,
          -56.56828640516954
        ]
      }
    },
    {
      "type": "Feature",
      "properties": {
        "norad_id": 40894,
        "name": "GAOFEN-9 01",
        "group": "resource",
        "lat": -23.651402102165367,
        "lon": -146.67402592803444,
        "alt_km": 644.314038426437,
        "timestamp": "2025-12-24T05:51:19.262896+00:00",
        "meta_object_name": "GAOFEN-9 01",
        "meta_object_id": "2015-047A",
        "meta_epoch": "2025-12-24T00:04:42.605760",
        "meta_mean_motion": 14.82448791,
        "meta_eccentricity": 0.00274719,
        "meta_inclination": 97.6528,
        "meta_ra_of_asc_node": 36.4716,
        "meta_arg_of_pericenter": 357.9194,
        "meta_mean_anomaly": 2.1901,
        "meta_ephemeris_type": 0,
        "meta_classification_type": "U",
        "meta_norad_cat_id": 40894,
        "meta_element_set_no": 999,
        "meta_rev_at_epoch": 55423,
        "meta_bstar": 0.00014111046,
        "meta_mean_motion_dot": 1.087e-05,
        "meta_mean_motion_ddot": 0,
        "tle_line1": "1 40894U 15047A   25358.00327090  .00001087  00000+0  14111-3 0  9992",
        "tle_line2": "2 40894  97.6528  36.4716 0027471 357.9194   2.1901 14.82448791554230"
      },
      "geometry": {
        "type": "Point",
        "coordinates": [
          -146.67402592803444,
          -23.651402102165367
        ]
      }
    }
  ]
}